STARLINK-31710          
1 59378U 24062E   26068.71549580  .00001032  00000+0  46990-4 0  9994
2 59378  53.1602 255.6643 0001228  96.7544 263.3597 15.30191972109632
2024-092F               
1 59778U 24092F   26068.91303411  .00025723  00000+0  79143-3 0  9992
2 59778  97.6418 198.4543 0008646 142.6506 217.5339 15.33614440100535
